[{"OBJECT_NAME":"STARLINK-30805","OBJECT_ID":"2023-170J","EPOCH":"2026-03-09T22:00:01.999584","MEAN_MOTION":15.26740375,"ECCENTRICITY":0.00013342,"INCLINATION":43,"RA_OF_ASC_NODE":192.6551,"ARG_OF_PERICENTER":263.3155,"MEAN_ANOMALY":238.1531,"EPHEMERIS_TYPE":0,"CLASSIFICATION_TYPE":"U","NORAD_CAT_ID":58214,"ELEMENT_SET_NO":999,"REV_AT_EPOCH":578,"BSTAR":0.00084192649,"MEAN_MOTION_DOT":0.00022393,"MEAN_MOTION_DDOT":0},{"OBJECT_NAME":"KIRARI (OICETS)","OBJECT_ID":"2005-031A","EPOCH":"2026-03-09T15:02:18.043872","MEAN_MOTION":15.22934858,"ECCENTRICITY":0.0019783,"INCLINATION":98.0768,"RA_OF_ASC_NODE":316.1697,"ARG_OF_PERICENTER":5.9068,"MEAN_ANOMALY":354.2396,"EPHEMERIS_TYPE":0,"CLASSIFICATION_TYPE":"U","NORAD_CAT_ID":28809,"ELEMENT_SET_NO":999,"REV_AT_EPOCH":12344,"BSTAR":0.00027776,"MEAN_MOTION_DOT":6.472e-5,"MEAN_MOTION_DDOT":0}]
